{"type":"FeatureCollection","features":[{"type":"Feature","geometry":{"type":"Polygon","coordinates":[[[144.83368,-37.64751],[144.83371,-37.64751],[144.83713,-37.64711],[144.83722,-37.6471],[144.83734,-37.64709],[144.83745,-37.64708],[144.83756,-37.64708],[144.83767,-37.64708],[144.83778,-37.64709],[144.83789,-37.6471],[144.838,-37.64711],[144.83811,-37.64713],[144.83822,-37.64715],[144.83832,-37.64717],[144.83843,-37.64719],[144.83854,-37.64722],[144.83863,-37.64726],[144.83873,-37.64729],[144.83882,-37.64733],[144.83891,-37.64737],[144.839,-37.64741],[144.83909,-37.64746],[144.83917,-37.64751],[144.83925,-37.64757],[144.83933,-37.64762],[144.83941,-37.64768],[144.83948,-37.64774],[144.83955,-37.6478],[144.83961,-37.64787],[144.83967,-37.64794],[144.83973,-37.64801],[144.83979,-37.64808],[144.83996,-37.64833],[144.84011,-37.64854],[144.84025,-37.64876],[144.84039,-37.64899],[144.84066,-37.64944],[144.84072,-37.64954],[144.84077,-37.64965],[144.84081,-37.64975],[144.84086,-37.64986],[144.84089,-37.64997],[144.84093,-37.65008],[144.84096,-37.65018],[144.84098,-37.65029],[144.84116,-37.65126],[144.84159,-37.65351],[144.84166,-37.65387],[144.84169,-37.65398],[144.84172,-37.65409],[144.84176,-37.65419],[144.8418,-37.65429],[144.84184,-37.6544],[144.84188,-37.6545],[144.84193,-37.6546],[144.84199,-37.6547],[144.84205,-37.65479],[144.84211,-37.65489],[144.84217,-37.65498],[144.84219,-37.655],[144.84281,-37.65579],[144.8446,-37.65807],[144.84528,-37.65895],[144.84529,-37.65896],[144.84551,-37.6592],[144.84558,-37.65926],[144.84565,-37.65932],[144.84573,-37.65938],[144.84581,-37.65944],[144.84589,-37.65949],[144.84598,-37.65954],[144.84607,-37.65958],[144.84616,-37.65963],[144.84625,-37.65967],[144.84634,-37.65971],[144.84644,-37.65974],[144.84654,-37.65977],[144.84664,-37.6598],[144.84674,-37.65982],[144.84684,-37.65984],[144.84695,-37.65986],[144.84705,-37.65987],[144.84716,-37.65988],[144.84724,-37.65989],[144.84733,-37.65989],[144.84763,-37.65992],[144.85023,-37.66005],[144.85042,-37.66006],[144.8506,-37.66008],[144.85078,-37.6601],[144.85096,-37.66012],[144.85114,-37.66015],[144.85119,-37.66016],[144.8513,-37.66018],[144.85141,-37.66021],[144.85152,-37.66024],[144.85162,-37.66027],[144.85172,-37.66031],[144.85176,-37.66033],[144.85181,-37.66034],[144.85188,-37.66037],[144.85194,-37.6604],[144.852,-37.66043],[144.85206,-37.66046],[144.853,-37.66107],[144.85319,-37.66119],[144.85329,-37.66126],[144.85339,-37.66133],[144.85348,-37.6614],[144.85357,-37.66148],[144.85365,-37.66156],[144.85374,-37.66164],[144.85383,-37.66173],[144.85428,-37.66231],[144.85434,-37.6624],[144.85439,-37.66248],[144.85443,-37.66257],[144.85448,-37.66267],[144.85451,-37.66276],[144.85455,-37.66285],[144.85457,-37.66295],[144.8546,-37.66304],[144.85469,-37.66349],[144.85469,-37.66351],[144.85471,-37.66366],[144.85475,-37.66379],[144.85479,-37.66394],[144.85483,-37.66409],[144.85485,-37.66425],[144.85486,-37.66429],[144.8549,-37.66429],[144.85494,-37.66449],[144.85497,-37.66465],[144.85497,-37.66466],[144.85499,-37.66481],[144.85501,-37.66514],[144.85501,-37.6653],[144.85501,-37.66546],[144.85502,-37.6662],[144.85503,-37.66719],[144.85503,-37.66726],[144.85503,-37.66829],[144.85503,-37.6683],[144.85503,-37.66834],[144.85503,-37.66838],[144.85501,-37.66843],[144.85499,-37.66849],[144.85497,-37.66855],[144.85496,-37.66861],[144.85496,-37.66863],[144.85494,-37.66867],[144.85493,-37.66871],[144.85491,-37.66875],[144.85488,-37.66879],[144.85485,-37.66882],[144.85479,-37.66889],[144.85471,-37.66894],[144.85461,-37.66898],[144.85452,-37.66899],[144.85437,-37.66901],[144.8541,-37.66904],[144.85394,-37.66906],[144.85394,-37.66906],[144.85355,-37.66911],[144.85354,-37.6691],[144.85353,-37.6691],[144.8535,-37.66908],[144.85348,-37.66907],[144.85345,-37.66905],[144.85343,-37.66903],[144.8534,-37.66902],[144.85338,-37.669],[144.85336,-37.669],[144.85336,-37.66899],[144.85326,-37.66897],[144.85322,-37.66898],[144.85169,-37.66916],[144.84984,-37.66938],[144.8497,-37.66953],[144.84899,-37.6703],[144.84896,-37.67032],[144.84892,-37.67036],[144.84888,-37.67041],[144.84885,-37.67045],[144.84882,-37.6705],[144.84879,-37.67055],[144.84877,-37.6706],[144.84875,-37.67065],[144.84874,-37.67071],[144.84873,-37.67076],[144.84872,-37.67081],[144.84873,-37.67087],[144.84873,-37.67092],[144.84874,-37.67098],[144.84884,-37.67151],[144.84887,-37.6715],[144.84889,-37.67155],[144.8489,-37.6716],[144.84892,-37.67165],[144.84895,-37.67169],[144.84895,-37.67169],[144.84896,-37.6717],[144.84898,-37.67174],[144.849,-37.67177],[144.84903,-37.6718],[144.84906,-37.67183],[144.84909,-37.67185],[144.84911,-37.67187],[144.84913,-37.67188],[144.84914,-37.67189],[144.84914,-37.6719],[144.84913,-37.67195],[144.84913,-37.672],[144.84913,-37.67204],[144.84915,-37.67215],[144.84916,-37.67224],[144.84916,-37.67226],[144.84915,-37.67229],[144.84919,-37.67252],[144.84919,-37.67252],[144.84918,-37.67253],[144.84919,-37.67259],[144.8492,-37.67259],[144.8492,-37.6726],[144.84931,-37.67318],[144.84933,-37.67327],[144.84942,-37.67378],[144.84942,-37.67379],[144.84942,-37.6738],[144.84941,-37.6738],[144.84942,-37.6739],[144.84943,-37.6739],[144.84944,-37.67391],[144.84945,-37.67392],[144.84945,-37.67392],[144.84953,-37.67434],[144.84953,-37.67435],[144.84953,-37.67436],[144.84952,-37.67437],[144.84951,-37.67437],[144.84952,-37.67446],[144.84953,-37.67447],[144.84954,-37.67447],[144.84955,-37.67447],[144.84955,-37.67449],[144.84959,-37.6747],[144.84959,-37.67471],[144.84959,-37.67471],[144.84958,-37.67472],[144.84957,-37.67472],[144.84959,-37.67482],[144.8496,-37.67482],[144.84961,-37.67482],[144.84961,-37.67483],[144.84962,-37.67484],[144.84966,-37.67511],[144.84966,-37.67511],[144.84967,-37.67511],[144.84967,-37.67513],[144.84966,-37.67514],[144.84966,-37.67516],[144.84964,-37.67517],[144.84963,-37.67518],[144.84961,-37.67519],[144.8496,-37.67519],[144.84961,-37.67524],[144.84962,-37.67525],[144.84964,-37.67525],[144.84966,-37.67526],[144.84967,-37.67526],[144.84967,-37.67527],[144.84968,-37.67527],[144.8497,-37.67529],[144.8497,-37.6753],[144.84975,-37.67554],[144.84976,-37.67561],[144.84984,-37.67604],[144.84987,-37.67617],[144.84996,-37.67666],[144.84997,-37.67671],[144.85,-37.6769],[144.85002,-37.67701],[144.84997,-37.67707],[144.85004,-37.67748],[144.85012,-37.67753],[144.85013,-37.67759],[144.85015,-37.67771],[144.85019,-37.67785],[144.85019,-37.67788],[144.84925,-37.6778],[144.84926,-37.67786],[144.84923,-37.67786],[144.84914,-37.67786],[144.84946,-37.67957],[144.85175,-37.67977],[144.85265,-37.67984],[144.85459,-37.68001],[144.85469,-37.68002],[144.85518,-37.68006],[144.8552,-37.67997],[144.85691,-37.68011],[144.85689,-37.68026],[144.85717,-37.68029],[144.85704,-37.68038],[144.8569,-37.68047],[144.85682,-37.68105],[144.8561,-37.68098],[144.85594,-37.68109],[144.85782,-37.68299],[144.86058,-37.68315],[144.86109,-37.68318],[144.86118,-37.68316],[144.86136,-37.68317],[144.86172,-37.68319],[144.86175,-37.68319],[144.86199,-37.68342],[144.86203,-37.68364],[144.86202,-37.6837],[144.86202,-37.68375],[144.86205,-37.68394],[144.86206,-37.68403],[144.86223,-37.6849],[144.8623,-37.68529],[144.86237,-37.68569],[144.86247,-37.68619],[144.86256,-37.68669],[144.86273,-37.68754],[144.86287,-37.68832],[144.86302,-37.68912],[144.86307,-37.68939],[144.86311,-37.68939],[144.86291,-37.69055],[144.86148,-37.69056],[144.85789,-37.69023],[144.85787,-37.69014],[144.85786,-37.69007],[144.85761,-37.68991],[144.85641,-37.68984],[144.85642,-37.68987],[144.85589,-37.68984],[144.8546,-37.68976],[144.85386,-37.68972],[144.85294,-37.68966],[144.85286,-37.68966],[144.85284,-37.68966],[144.85132,-37.68957],[144.85122,-37.68956],[144.85042,-37.68952],[144.84987,-37.68949],[144.84837,-37.6894],[144.84795,-37.68937],[144.84687,-37.68932],[144.84593,-37.68926],[144.84586,-37.68925],[144.84586,-37.68925],[144.84583,-37.68925],[144.84568,-37.68926],[144.84561,-37.68926],[144.84502,-37.68929],[144.8447,-37.68939],[144.8446,-37.68941],[144.84442,-37.68947],[144.84414,-37.68955],[144.84348,-37.68989],[144.84323,-37.69002],[144.84232,-37.6904],[144.84173,-37.69045],[144.8414,-37.69049],[144.84124,-37.69049],[144.84029,-37.69027],[144.8395,-37.68975],[144.83917,-37.68902],[144.83914,-37.68897],[144.83911,-37.68888],[144.83885,-37.68833],[144.83866,-37.68732],[144.83848,-37.68638],[144.83829,-37.68532],[144.83813,-37.68451],[144.83796,-37.68357],[144.83795,-37.6835],[144.83775,-37.68247],[144.83762,-37.68176],[144.83751,-37.68116],[144.83702,-37.68026],[144.837,-37.68023],[144.83632,-37.679],[144.83556,-37.67759],[144.83536,-37.6767],[144.83545,-37.67624],[144.83554,-37.67576],[144.83556,-37.67566],[144.83558,-37.67559],[144.83558,-37.67558],[144.83571,-37.67507],[144.83566,-37.67455],[144.83527,-37.67363],[144.83353,-37.6695],[144.83347,-37.66936],[144.83335,-37.66939],[144.83325,-37.66916],[144.83264,-37.66768],[144.83263,-37.66767],[144.83251,-37.66736],[144.83248,-37.6673],[144.83244,-37.66719],[144.83238,-37.66708],[144.83233,-37.66697],[144.83227,-37.66686],[144.83223,-37.66679],[144.83219,-37.66672],[144.83214,-37.66665],[144.8321,-37.66658],[144.83204,-37.66652],[144.832,-37.66647],[144.83199,-37.66645],[144.83176,-37.66623],[144.83174,-37.66622],[144.83172,-37.6662],[144.83165,-37.66614],[144.83156,-37.66609],[144.83147,-37.66603],[144.83138,-37.66598],[144.83129,-37.66593],[144.83119,-37.66588],[144.83109,-37.66583],[144.83098,-37.66579],[144.83088,-37.66575],[144.83087,-37.66575],[144.83077,-37.66572],[144.83067,-37.66569],[144.83056,-37.66566],[144.83045,-37.66564],[144.83034,-37.66562],[144.83022,-37.6656],[144.8302,-37.6656],[144.83011,-37.66558],[144.83,-37.66557],[144.82988,-37.66557],[144.82441,-37.66494],[144.8235,-37.66483],[144.82309,-37.66479],[144.81835,-37.66423],[144.81828,-37.66423],[144.81822,-37.66423],[144.81816,-37.66422],[144.8181,-37.6642],[144.81804,-37.66419],[144.81799,-37.66417],[144.81793,-37.66414],[144.81788,-37.66412],[144.81783,-37.66409],[144.81779,-37.66406],[144.81775,-37.66402],[144.8177,-37.66399],[144.81767,-37.66395],[144.81764,-37.66391],[144.81761,-37.66386],[144.81759,-37.66382],[144.81757,-37.66377],[144.81755,-37.66373],[144.81754,-37.66368],[144.81722,-37.66229],[144.81721,-37.66227],[144.8172,-37.66218],[144.81719,-37.66209],[144.81718,-37.66199],[144.81718,-37.6619],[144.81719,-37.66181],[144.8172,-37.66172],[144.81741,-37.65957],[144.81751,-37.6591],[144.81754,-37.65898],[144.81756,-37.65888],[144.81758,-37.65877],[144.8176,-37.65866],[144.81761,-37.65856],[144.81761,-37.65854],[144.81762,-37.6585],[144.81764,-37.65847],[144.81764,-37.65846],[144.81765,-37.65843],[144.81767,-37.65841],[144.8177,-37.65838],[144.81774,-37.65836],[144.81778,-37.65834],[144.81782,-37.65833],[144.81786,-37.65832],[144.81791,-37.65831],[144.81795,-37.65831],[144.82394,-37.65867],[144.82399,-37.65867],[144.82414,-37.65867],[144.8243,-37.65866],[144.82445,-37.65865],[144.8246,-37.65864],[144.8247,-37.65863],[144.82482,-37.65862],[144.82493,-37.65861],[144.82504,-37.65859],[144.82524,-37.65856],[144.82549,-37.65853],[144.82768,-37.6583],[144.83009,-37.65804],[144.83017,-37.65803],[144.83028,-37.65802],[144.83038,-37.658],[144.83048,-37.65798],[144.83055,-37.65796],[144.83068,-37.65794],[144.83112,-37.65778],[144.83119,-37.65774],[144.83126,-37.6577],[144.83134,-37.65765],[144.83141,-37.65759],[144.83148,-37.65754],[144.83155,-37.65748],[144.83161,-37.65742],[144.83167,-37.65736],[144.83172,-37.6573],[144.83177,-37.65723],[144.83182,-37.65716],[144.83186,-37.65709],[144.8319,-37.65702],[144.83191,-37.65702],[144.83195,-37.65684],[144.83196,-37.65678],[144.83197,-37.65668],[144.83197,-37.65658],[144.83197,-37.65648],[144.83197,-37.65638],[144.83196,-37.65628],[144.83194,-37.65617],[144.83192,-37.65608],[144.8319,-37.65597],[144.83187,-37.65588],[144.83187,-37.65588],[144.83184,-37.65578],[144.8318,-37.65568],[144.83176,-37.65558],[144.83152,-37.65489],[144.83142,-37.65462],[144.83134,-37.6544],[144.83127,-37.65417],[144.8312,-37.65395],[144.83028,-37.65081],[144.83007,-37.65018],[144.83005,-37.65011],[144.83003,-37.65003],[144.83001,-37.64995],[144.83,-37.64986],[144.82999,-37.64978],[144.82999,-37.64969],[144.82999,-37.64961],[144.82999,-37.64953],[144.83,-37.64944],[144.83002,-37.64936],[144.83004,-37.64928],[144.83006,-37.64919],[144.83009,-37.64911],[144.83012,-37.64903],[144.83016,-37.64895],[144.8302,-37.64887],[144.83024,-37.6488],[144.83029,-37.64872],[144.83034,-37.64865],[144.8304,-37.64858],[144.83046,-37.64851],[144.83052,-37.64844],[144.83059,-37.64838],[144.83066,-37.64832],[144.83074,-37.64826],[144.83081,-37.6482],[144.83089,-37.64814],[144.83098,-37.64809],[144.83106,-37.64804],[144.83115,-37.648],[144.83124,-37.64795],[144.83134,-37.64791],[144.83143,-37.64788],[144.83153,-37.64784],[144.83163,-37.64781],[144.83173,-37.64779],[144.83198,-37.64773],[144.83199,-37.64772],[144.8321,-37.6477],[144.83223,-37.64768],[144.83236,-37.64766],[144.83331,-37.64755],[144.83345,-37.64753],[144.83368,-37.64751]]]},"properties":{"name":"MELBOURNE/MELBOURNE INTL","ftype":"airport"}},{"type":"Feature","geometry":{"type":"Polygon","coordinates":[[[144.46377,-38.01599],[144.47182,-38.01696],[144.47687,-38.01752],[144.47953,-38.01787],[144.48089,-38.01802],[144.49001,-38.01896],[144.48742,-38.03328],[144.48645,-38.03863],[144.4848,-38.0476],[144.48479,-38.04769],[144.48345,-38.05556],[144.48334,-38.05619],[144.4822,-38.06202],[144.48219,-38.062],[144.47637,-38.06136],[144.46391,-38.06],[144.44594,-38.05801],[144.44857,-38.04352],[144.44988,-38.03632],[144.45084,-38.03095],[144.45118,-38.02912],[144.46028,-38.03016],[144.46159,-38.02298],[144.46279,-38.01631],[144.46339,-38.01604],[144.46377,-38.01599]]]},"properties":{"name":"AVALON","ftype":"airport"}},{"type":"Feature","geometry":{"type":"Polygon","coordinates":[[[145.10136,-37.97108],[145.10228,-37.9712],[145.10281,-37.97127],[145.10346,-37.97138],[145.10372,-37.97141],[145.10384,-37.97142],[145.10425,-37.97144],[145.1045,-37.97147],[145.10547,-37.97165],[145.10561,-37.97167],[145.10657,-37.97179],[145.10659,-37.97179],[145.10752,-37.97193],[145.10793,-37.97198],[145.10824,-37.97199],[145.10867,-37.97203],[145.10885,-37.97204],[145.10911,-37.97207],[145.10966,-37.97214],[145.10972,-37.97215],[145.10999,-37.9722],[145.11067,-37.97229],[145.11112,-37.97236],[145.11141,-37.97246],[145.11148,-37.97266],[145.1114,-37.97309],[145.1114,-37.9732],[145.11134,-37.97357],[145.11134,-37.97358],[145.11133,-37.97383],[145.11046,-37.97894],[145.11041,-37.97923],[145.11021,-37.9803],[145.10937,-37.98529],[145.10928,-37.98554],[145.10926,-37.98566],[145.10918,-37.98615],[145.1091,-37.98627],[145.10896,-37.98634],[145.10862,-37.9863],[145.10813,-37.98634],[145.10797,-37.98635],[145.10692,-37.98623],[145.10645,-37.98617],[145.10622,-37.98614],[145.10337,-37.98579],[145.10186,-37.98561],[145.10175,-37.9856],[145.09869,-37.98523],[145.09527,-37.9848],[145.09534,-37.98445],[145.09545,-37.98381],[145.09546,-37.9838],[145.09551,-37.9835],[145.09561,-37.98299],[145.09508,-37.98292],[145.09476,-37.98289],[145.09436,-37.98284],[145.09357,-37.98274],[145.09312,-37.98269],[145.09318,-37.98235],[145.09329,-37.9818],[145.09343,-37.98103],[145.09345,-37.98092],[145.09379,-37.97913],[145.09397,-37.9782],[145.09379,-37.97818],[145.09132,-37.97788],[145.09134,-37.97776],[145.09139,-37.97752],[145.09191,-37.97758],[145.09202,-37.97704],[145.09196,-37.97703],[145.09149,-37.97697],[145.09094,-37.97691],[145.09076,-37.97689],[145.08972,-37.97676],[145.08886,-37.97666],[145.08883,-37.97666],[145.0886,-37.97663],[145.08806,-37.97657],[145.08634,-37.97636],[145.08633,-37.97636],[145.08633,-37.97635],[145.08637,-37.97553],[145.08639,-37.97503],[145.08623,-37.97447],[145.08665,-37.9723],[145.08707,-37.96993],[145.08712,-37.96935],[145.08799,-37.96945],[145.09072,-37.96978],[145.09223,-37.96996],[145.09319,-37.97008],[145.09431,-37.97022],[145.10067,-37.971],[145.10136,-37.97108]]]},"properties":{"name":"MELBOURNE/MOORABBIN","ftype":"airport"}},{"type":"Feature","geometry":{"type":"Polygon","coordinates":[[[144.90225,-37.72281],[144.90212,-37.72282],[144.90229,-37.72445],[144.9045,-37.72432],[144.90518,-37.72427],[144.90529,-37.72427],[144.90518,-37.72318],[144.90517,-37.72308],[144.90637,-37.723],[144.90966,-37.72479],[144.91295,-37.72572],[144.91298,-37.72576],[144.91267,-37.72754],[144.91259,-37.72771],[144.91249,-37.72825],[144.91272,-37.72828],[144.91314,-37.72832],[144.91324,-37.72834],[144.91321,-37.72848],[144.91319,-37.72863],[144.91316,-37.72878],[144.91337,-37.7288],[144.91341,-37.7288],[144.91368,-37.72883],[144.91365,-37.729],[144.91403,-37.72904],[144.91401,-37.72918],[144.91479,-37.72926],[144.91482,-37.72929],[144.91478,-37.72956],[144.91495,-37.72957],[144.91514,-37.7296],[144.91525,-37.72961],[144.91535,-37.72962],[144.91546,-37.72963],[144.91545,-37.7297],[144.91544,-37.72978],[144.91595,-37.72983],[144.91588,-37.73027],[144.91605,-37.73029],[144.91629,-37.73031],[144.91657,-37.73034],[144.91654,-37.73049],[144.91652,-37.73064],[144.91703,-37.73069],[144.91696,-37.73113],[144.91689,-37.73126],[144.91686,-37.73145],[144.91682,-37.73166],[144.9168,-37.7318],[144.91682,-37.7318],[144.91675,-37.73219],[144.91616,-37.73222],[144.91343,-37.73232],[144.91294,-37.73239],[144.91135,-37.73261],[144.90927,-37.73323],[144.90681,-37.73409],[144.90627,-37.7343],[144.90611,-37.73436],[144.90464,-37.73494],[144.90434,-37.73446],[144.90404,-37.73457],[144.90402,-37.73458],[144.90377,-37.73468],[144.90277,-37.73505],[144.90211,-37.73502],[144.90122,-37.73495],[144.89994,-37.73478],[144.89886,-37.73462],[144.89788,-37.7344],[144.89554,-37.73377],[144.8948,-37.73363],[144.89352,-37.7335],[144.89254,-37.73325],[144.8921,-37.73297],[144.89172,-37.73265],[144.89132,-37.73221],[144.89112,-37.73189],[144.89091,-37.73146],[144.89076,-37.73088],[144.89075,-37.73023],[144.89096,-37.72877],[144.89106,-37.72782],[144.89124,-37.72731],[144.89143,-37.72689],[144.89148,-37.72678],[144.89152,-37.72671],[144.89166,-37.72645],[144.89168,-37.72632],[144.89168,-37.72632],[144.89172,-37.72633],[144.89173,-37.72631],[144.89176,-37.72611],[144.89176,-37.7261],[144.89177,-37.72607],[144.8918,-37.72604],[144.89182,-37.72601],[144.89185,-37.72598],[144.89188,-37.72596],[144.89191,-37.72594],[144.89195,-37.72592],[144.892,-37.72591],[144.89206,-37.72589],[144.89212,-37.72588],[144.89219,-37.72588],[144.89225,-37.72588],[144.89232,-37.72588],[144.89238,-37.72589],[144.89244,-37.72589],[144.89251,-37.7255],[144.89253,-37.72539],[144.89254,-37.72529],[144.89231,-37.72522],[144.8923,-37.72522],[144.89209,-37.72505],[144.89209,-37.72504],[144.89209,-37.72504],[144.89205,-37.72487],[144.89204,-37.72405],[144.89204,-37.72384],[144.89209,-37.72353],[144.89204,-37.72352],[144.89203,-37.72192],[144.89236,-37.71977],[144.89258,-37.71835],[144.89281,-37.7173],[144.89295,-37.71712],[144.89299,-37.71705],[144.8933,-37.71634],[144.89332,-37.71629],[144.89338,-37.71603],[144.89345,-37.71576],[144.8931,-37.71393],[144.89303,-37.71356],[144.89302,-37.71348],[144.89311,-37.7135],[144.8932,-37.71351],[144.8933,-37.71352],[144.89339,-37.71353],[144.89349,-37.71354],[144.89358,-37.71355],[144.89367,-37.71356],[144.89377,-37.71357],[144.89387,-37.71359],[144.89396,-37.7136],[144.89414,-37.71362],[144.89433,-37.71364],[144.89452,-37.71367],[144.89471,-37.71369],[144.8948,-37.7137],[144.8949,-37.71371],[144.89508,-37.71373],[144.89527,-37.71376],[144.89546,-37.71378],[144.89651,-37.71391],[144.89651,-37.71391],[144.89651,-37.71396],[144.89648,-37.7141],[144.89646,-37.71423],[144.89644,-37.71437],[144.89641,-37.71451],[144.8964,-37.71457],[144.89639,-37.71464],[144.89637,-37.71478],[144.89634,-37.71491],[144.89632,-37.71505],[144.8963,-37.71519],[144.89627,-37.71532],[144.89625,-37.71546],[144.89622,-37.7156],[144.8962,-37.71577],[144.89618,-37.71586],[144.89629,-37.71598],[144.89642,-37.71612],[144.89652,-37.71623],[144.89662,-37.71634],[144.89673,-37.71645],[144.89683,-37.71656],[144.89693,-37.71667],[144.89703,-37.71678],[144.89713,-37.71689],[144.89723,-37.717],[144.89724,-37.71701],[144.89723,-37.71701],[144.89852,-37.7184],[144.8997,-37.7187],[144.90174,-37.71923],[144.90179,-37.71924],[144.90188,-37.71926],[144.90197,-37.71929],[144.90207,-37.71931],[144.90223,-37.71935],[144.9024,-37.71939],[144.90257,-37.71944],[144.90273,-37.71948],[144.9029,-37.71952],[144.90305,-37.71956],[144.90313,-37.71958],[144.90318,-37.71959],[144.90319,-37.71959],[144.90328,-37.71966],[144.9034,-37.71976],[144.90353,-37.71986],[144.90365,-37.71995],[144.90377,-37.72005],[144.90383,-37.7201],[144.9039,-37.72015],[144.90402,-37.72025],[144.90415,-37.72035],[144.90428,-37.72045],[144.9044,-37.72055],[144.90453,-37.72065],[144.90461,-37.72071],[144.90465,-37.72075],[144.90478,-37.72084],[144.90487,-37.72092],[144.9049,-37.72109],[144.90493,-37.72137],[144.90493,-37.72137],[144.90495,-37.72158],[144.90499,-37.72198],[144.90382,-37.72205],[144.90383,-37.7221],[144.90389,-37.72271],[144.90277,-37.72277],[144.90225,-37.72281]]]},"properties":{"name":"ESSENDON FIELDS AIRPORT","ftype":"airport"}},{"type":"Feature","geometry":{"type":"Polygon","coordinates":[[[145.18122,-38.26229],[145.1813,-38.26229],[145.18139,-38.26229],[145.18139,-38.26256],[145.18139,-38.26283],[145.1815,-38.26283],[145.1817,-38.26283],[145.18186,-38.26283],[145.18205,-38.26283],[145.18221,-38.26283],[145.18247,-38.26283],[145.18263,-38.26283],[145.1828,-38.26283],[145.1828,-38.2632],[145.1828,-38.2641],[145.1828,-38.26501],[145.1828,-38.26592],[145.18078,-38.26592],[145.18039,-38.26592],[145.18039,-38.26682],[145.1804,-38.26773],[145.1804,-38.26864],[145.1804,-38.26954],[145.18041,-38.27045],[145.18041,-38.27136],[145.18041,-38.27222],[145.17807,-38.27223],[145.17807,-38.26989],[145.17807,-38.26867],[145.179,-38.26867],[145.17899,-38.26577],[145.17099,-38.26577],[145.17098,-38.26495],[145.17217,-38.26495],[145.17336,-38.26495],[145.17454,-38.26495],[145.17573,-38.26495],[145.17689,-38.26494],[145.17809,-38.26494],[145.17924,-38.26494],[145.17922,-38.26139],[145.18037,-38.26139],[145.18038,-38.26229],[145.18056,-38.26229],[145.18073,-38.26229],[145.18084,-38.26229],[145.1809,-38.26229],[145.18106,-38.26229],[145.18122,-38.26229]]]},"properties":{"name":"TYABB (WESTERNPORT)","ftype":"airport"}},{"type":"Feature","geometry":{"type":"Polygon","coordinates":[[[144.74441,-37.92307],[144.74519,-37.92279],[144.74937,-37.92324],[144.74963,-37.92309],[144.76749,-37.92502],[144.76601,-37.93363],[144.76434,-37.93498],[144.76255,-37.9363],[144.76136,-37.93713],[144.7611,-37.93731],[144.75796,-37.93788],[144.75306,-37.93904],[144.74958,-37.93868],[144.74666,-37.93889],[144.74326,-37.9394],[144.74069,-37.9404],[144.74127,-37.93718],[144.74167,-37.93492],[144.74206,-37.93274],[144.74269,-37.92926],[144.74277,-37.92881],[144.7426,-37.92879],[144.74262,-37.92869],[144.74342,-37.92435],[144.7437,-37.9237],[144.74441,-37.92307]]]},"properties":{"name":"POINT COOK","ftype":"airport"}},{"type":"Feature","geometry":{"type":"Polygon","coordinates":[[[145.42738,-38.21234],[145.4274,-38.21232],[145.42772,-38.21207],[145.43109,-38.2144],[145.43078,-38.21467],[145.43058,-38.21503],[145.43045,-38.21538],[145.43052,-38.21574],[145.43075,-38.21596],[145.43069,-38.21626],[145.43054,-38.21642],[145.43036,-38.21661],[145.43016,-38.21672],[145.42991,-38.21677],[145.42969,-38.21674],[145.42934,-38.21664],[145.42899,-38.21657],[145.42874,-38.21656],[145.42832,-38.21657],[145.42795,-38.21655],[145.42766,-38.21645],[145.42713,-38.21629],[145.4265,-38.21618],[145.42608,-38.21615],[145.42582,-38.21621],[145.42572,-38.21624],[145.42563,-38.21621],[145.42543,-38.21617],[145.42499,-38.21617],[145.42487,-38.21619],[145.42469,-38.21621],[145.42455,-38.21623],[145.42431,-38.21629],[145.42403,-38.21636],[145.42374,-38.21644],[145.42361,-38.21651],[145.42353,-38.21658],[145.42347,-38.21664],[145.42327,-38.21672],[145.42305,-38.21683],[145.4228,-38.21699],[145.42262,-38.21709],[145.42227,-38.21739],[145.42195,-38.2176],[145.42157,-38.21798],[145.42125,-38.21833],[145.42096,-38.21865],[145.42077,-38.21878],[145.42047,-38.21909],[145.42019,-38.21947],[145.41985,-38.21995],[145.41849,-38.21944],[145.41847,-38.21877],[145.4185,-38.21431],[145.42071,-38.21437],[145.42468,-38.21334],[145.42688,-38.21274],[145.42738,-38.21234]]]},"properties":{"name":"TOORADIN","ftype":"airport"}},{"type":"Feature","geometry":{"type":"Polygon","coordinates":[[[144.42515,-37.72324],[144.42699,-37.72375],[144.42641,-37.72505],[144.4255,-37.72711],[144.43011,-37.72805],[144.42931,-37.73053],[144.43262,-37.7312],[144.4325,-37.73137],[144.43217,-37.73187],[144.43239,-37.73192],[144.43343,-37.73213],[144.43544,-37.73255],[144.43606,-37.73261],[144.43626,-37.73263],[144.43679,-37.73269],[144.43684,-37.73274],[144.43629,-37.73583],[144.43623,-37.73586],[144.43465,-37.73554],[144.43057,-37.73471],[144.43029,-37.73465],[144.43113,-37.73341],[144.4234,-37.73183],[144.41914,-37.74143],[144.4189,-37.74133],[144.41876,-37.74153],[144.41706,-37.74106],[144.42133,-37.73141],[144.41771,-37.73067],[144.41629,-37.73038],[144.414,-37.73012],[144.41403,-37.73003],[144.41406,-37.72994],[144.4146,-37.72829],[144.41554,-37.72848],[144.42204,-37.72981],[144.42498,-37.72319],[144.42507,-37.72322],[144.42515,-37.72324]]]},"properties":{"name":"BACCHUS MARSH","ftype":"airport"}},{"type":"Feature","geometry":{"type":"Polygon","coordinates":[[[145.40706,-37.72332],[145.40961,-37.72318],[145.40973,-37.72455],[145.41,-37.72772],[145.41025,-37.73056],[145.41031,-37.73127],[145.40986,-37.73129],[145.40959,-37.73316],[145.40951,-37.73373],[145.40818,-37.73248],[145.40802,-37.73139],[145.40776,-37.73141],[145.40706,-37.72332]]]},"properties":{"name":"COLDSTREAM","ftype":"airport"}},{"type":"Feature","geometry":{"type":"Polygon","coordinates":[[[145.36673,-37.68609],[145.36809,-37.68645],[145.36884,-37.68663],[145.36814,-37.69048],[145.36951,-37.69093],[145.36906,-37.69199],[145.37293,-37.69476],[145.37315,-37.69481],[145.37227,-37.69752],[145.37186,-37.69846],[145.371,-37.69917],[145.36983,-37.69951],[145.36859,-37.69944],[145.36442,-37.69893],[145.36471,-37.6973],[145.36603,-37.69009],[145.36601,-37.69008],[145.3666,-37.68675],[145.36673,-37.68609]]]},"properties":{"name":"LILYDALE","ftype":"airport"}}]}