{"type":"FeatureCollection","features":[{"type":"Feature","geometry":{"type":"MultiPolygon","coordinates":[[[[144.401,-38.28267],[144.40125,-38.28196],[144.40091,-38.28375],[144.4006,-38.28535],[144.39955,-38.28567],[144.39844,-38.28606],[144.39744,-38.28659],[144.39707,-38.28678],[144.39708,-38.287],[144.39709,-38.28786],[144.39708,-38.28794],[144.39696,-38.28816],[144.39679,-38.28854],[144.39677,-38.28897],[144.3969,-38.28946],[144.39712,-38.2899],[144.39728,-38.29036],[144.39715,-38.29073],[144.39698,-38.29117],[144.39675,-38.29139],[144.39649,-38.29177],[144.39623,-38.29197],[144.39553,-38.29244],[144.39489,-38.29267],[144.39456,-38.29283],[144.39404,-38.29311],[144.39296,-38.29322],[144.39155,-38.29338],[144.39078,-38.29312],[144.39059,-38.29306],[144.38958,-38.29225],[144.38911,-38.29182],[144.38902,-38.29179],[144.38893,-38.29174],[144.38871,-38.29166],[144.3885,-38.2916],[144.38824,-38.29157],[144.38783,-38.29155],[144.38764,-38.2916],[144.38745,-38.29165],[144.3873,-38.29172],[144.38713,-38.29184],[144.38694,-38.29199],[144.38669,-38.29216],[144.3865,-38.2923],[144.38638,-38.29243],[144.38625,-38.29255],[144.38614,-38.29266],[144.386,-38.29282],[144.3859,-38.29295],[144.38579,-38.29312],[144.3857,-38.29332],[144.38562,-38.29358],[144.38557,-38.29382],[144.38549,-38.29407],[144.38546,-38.29417],[144.38547,-38.29424],[144.38543,-38.29432],[144.38544,-38.29438],[144.38542,-38.29445],[144.38539,-38.29454],[144.38537,-38.29467],[144.38535,-38.29474],[144.38533,-38.29489],[144.38527,-38.2952],[144.38525,-38.29532],[144.38519,-38.29551],[144.38512,-38.2957],[144.385,-38.2959],[144.38494,-38.29602],[144.38484,-38.29616],[144.38472,-38.29629],[144.3846,-38.29637],[144.38447,-38.29646],[144.38434,-38.29656],[144.38418,-38.29666],[144.38397,-38.29675],[144.38378,-38.29681],[144.3837,-38.29682],[144.38359,-38.29686],[144.38345,-38.29689],[144.38326,-38.29694],[144.38242,-38.297],[144.38199,-38.29715],[144.38169,-38.29721],[144.38144,-38.29722],[144.3813,-38.29724],[144.38111,-38.29728],[144.38098,-38.29726],[144.38089,-38.29727],[144.38084,-38.29729],[144.38065,-38.2973],[144.38043,-38.29731],[144.38028,-38.2973],[144.37999,-38.29732],[144.37976,-38.29732],[144.37953,-38.29735],[144.37925,-38.29741],[144.37906,-38.29747],[144.37887,-38.29756],[144.37873,-38.29765],[144.37861,-38.29774],[144.37841,-38.29784],[144.37828,-38.29791],[144.37816,-38.29798],[144.37802,-38.29816],[144.37791,-38.29827],[144.37771,-38.29846],[144.37753,-38.29858],[144.3773,-38.29869],[144.37721,-38.29864],[144.37713,-38.2986],[144.37706,-38.29855],[144.37699,-38.2985],[144.37692,-38.29845],[144.37686,-38.29839],[144.37681,-38.29833],[144.37676,-38.29826],[144.37673,-38.2982],[144.37669,-38.29812],[144.37662,-38.29804],[144.37658,-38.29797],[144.37654,-38.2979],[144.37651,-38.29783],[144.3765,-38.2978],[144.37647,-38.29769],[144.37644,-38.29759],[144.37644,-38.29753],[144.37643,-38.29747],[144.37643,-38.29733],[144.37644,-38.29725],[144.37645,-38.29718],[144.37647,-38.29711],[144.3765,-38.29704],[144.37653,-38.29694],[144.37657,-38.29682],[144.3766,-38.29674],[144.37666,-38.29663],[144.3767,-38.29653],[144.37676,-38.29642],[144.37681,-38.29633],[144.37686,-38.29625],[144.37688,-38.29619],[144.37692,-38.29611],[144.37697,-38.29605],[144.37702,-38.29598],[144.37707,-38.29592],[144.37713,-38.29587],[144.3772,-38.29581],[144.37727,-38.29577],[144.37735,-38.29572],[144.37743,-38.29569],[144.37752,-38.29566],[144.37765,-38.29559],[144.37781,-38.29552],[144.37796,-38.29547],[144.378,-38.29546],[144.37814,-38.29542],[144.37821,-38.2954],[144.37835,-38.29537],[144.37852,-38.29534],[144.37861,-38.29532],[144.37867,-38.2953],[144.37873,-38.29528],[144.37881,-38.29525],[144.37892,-38.29522],[144.37911,-38.29518],[144.37914,-38.29517],[144.37933,-38.29506],[144.3793,-38.29505],[144.37922,-38.29501],[144.37915,-38.29496],[144.37853,-38.29453],[144.37838,-38.29439],[144.37832,-38.29433],[144.37828,-38.29427],[144.37824,-38.2942],[144.3782,-38.29413],[144.37818,-38.29406],[144.37816,-38.29399],[144.37815,-38.29393],[144.37813,-38.29389],[144.37809,-38.29381],[144.37807,-38.29378],[144.37794,-38.29386],[144.37789,-38.29388],[144.37781,-38.29392],[144.37772,-38.29395],[144.37764,-38.29398],[144.37754,-38.294],[144.37744,-38.29401],[144.37706,-38.29405],[144.37697,-38.29406],[144.3769,-38.29406],[144.37641,-38.29406],[144.37632,-38.29406],[144.37623,-38.29405],[144.37614,-38.29404],[144.37564,-38.29394],[144.37553,-38.29426],[144.37549,-38.29436],[144.37545,-38.29443],[144.37541,-38.29449],[144.37536,-38.29455],[144.37522,-38.29467],[144.3747,-38.29507],[144.37467,-38.2951],[144.37459,-38.29515],[144.37452,-38.29519],[144.37443,-38.29523],[144.37427,-38.29528],[144.37387,-38.29539],[144.37392,-38.29549],[144.37398,-38.29563],[144.374,-38.2957],[144.37401,-38.29577],[144.37401,-38.29584],[144.37405,-38.2959],[144.37409,-38.29597],[144.37413,-38.29604],[144.37415,-38.29611],[144.37422,-38.29634],[144.37424,-38.29641],[144.37424,-38.29644],[144.37426,-38.29661],[144.37427,-38.2967],[144.37427,-38.29678],[144.37425,-38.29685],[144.37423,-38.29692],[144.37421,-38.297],[144.37417,-38.29706],[144.37413,-38.29713],[144.37408,-38.29719],[144.37403,-38.29725],[144.37399,-38.29729],[144.37396,-38.2974],[144.37395,-38.29744],[144.37393,-38.29751],[144.3739,-38.29758],[144.37386,-38.29765],[144.37384,-38.29767],[144.37383,-38.29774],[144.3738,-38.29781],[144.37377,-38.29788],[144.37373,-38.29795],[144.37364,-38.29807],[144.37358,-38.29814],[144.37354,-38.29818],[144.37348,-38.29823],[144.37341,-38.29828],[144.37334,-38.29833],[144.37326,-38.29837],[144.37312,-38.29843],[144.37298,-38.29848],[144.37286,-38.29852],[144.3728,-38.29853],[144.3727,-38.29855],[144.37261,-38.29857],[144.37251,-38.29857],[144.37242,-38.29857],[144.37233,-38.29857],[144.37216,-38.29856],[144.37205,-38.29854],[144.37207,-38.29857],[144.37223,-38.29863],[144.3723,-38.29867],[144.37238,-38.29872],[144.3724,-38.29874],[144.37281,-38.29897],[144.37294,-38.29896],[144.37301,-38.29895],[144.3731,-38.29896],[144.37316,-38.29896],[144.37348,-38.29899],[144.37361,-38.29901],[144.3737,-38.29903],[144.37379,-38.29905],[144.37388,-38.29909],[144.37393,-38.29911],[144.37416,-38.29921],[144.37434,-38.29932],[144.3744,-38.29937],[144.37447,-38.29942],[144.37452,-38.29948],[144.37455,-38.29952],[144.37447,-38.29958],[144.37435,-38.29967],[144.37423,-38.29976],[144.3741,-38.29984],[144.374,-38.29989],[144.37384,-38.29997],[144.37384,-38.30035],[144.37398,-38.30119],[144.37417,-38.30136],[144.3741,-38.3014],[144.37401,-38.30143],[144.37392,-38.30146],[144.37383,-38.30148],[144.37372,-38.3015],[144.37342,-38.30154],[144.37338,-38.30154],[144.37329,-38.30155],[144.37319,-38.30155],[144.3731,-38.30156],[144.37301,-38.30156],[144.37292,-38.30156],[144.37282,-38.30158],[144.37273,-38.30158],[144.3727,-38.30164],[144.37267,-38.30172],[144.37261,-38.30183],[144.37233,-38.30232],[144.37229,-38.30238],[144.37223,-38.30244],[144.37218,-38.3025],[144.37206,-38.30259],[144.37208,-38.30273],[144.37211,-38.3028],[144.37219,-38.30297],[144.37227,-38.30299],[144.37243,-38.30294],[144.37282,-38.30286],[144.37293,-38.30284],[144.37303,-38.30283],[144.37312,-38.30283],[144.37321,-38.30283],[144.37331,-38.30284],[144.3734,-38.30285],[144.37349,-38.30288],[144.37358,-38.3029],[144.37366,-38.30293],[144.37375,-38.30297],[144.37382,-38.30302],[144.3739,-38.30306],[144.37396,-38.30312],[144.37402,-38.30317],[144.37408,-38.30323],[144.37457,-38.30384],[144.37467,-38.30399],[144.3747,-38.30406],[144.37473,-38.30413],[144.37474,-38.30421],[144.37475,-38.30428],[144.37475,-38.30433],[144.37473,-38.30583],[144.37473,-38.3059],[144.37472,-38.30598],[144.3747,-38.30605],[144.37467,-38.30612],[144.37463,-38.30619],[144.37459,-38.30626],[144.37454,-38.30632],[144.37444,-38.30642],[144.37408,-38.30674],[144.3739,-38.30689],[144.37376,-38.307],[144.37293,-38.30751],[144.3728,-38.30758],[144.37225,-38.30783],[144.37219,-38.30785],[144.37211,-38.30788],[144.37202,-38.30791],[144.37189,-38.30793],[144.37128,-38.30803],[144.37123,-38.30808],[144.37093,-38.30852],[144.37089,-38.30857],[144.37083,-38.30863],[144.37077,-38.30869],[144.37071,-38.30874],[144.37063,-38.30879],[144.37056,-38.30883],[144.37048,-38.30887],[144.37039,-38.30891],[144.37028,-38.30894],[144.36931,-38.30919],[144.36922,-38.30921],[144.36912,-38.30922],[144.36903,-38.30923],[144.36893,-38.30923],[144.36884,-38.30923],[144.36874,-38.30922],[144.36865,-38.3092],[144.36856,-38.30918],[144.36847,-38.30915],[144.36839,-38.30911],[144.36831,-38.30908],[144.36818,-38.30908],[144.36803,-38.30915],[144.36792,-38.30919],[144.36667,-38.30962],[144.36659,-38.30965],[144.36647,-38.30976],[144.36643,-38.30983],[144.36638,-38.30989],[144.36633,-38.30995],[144.36627,-38.31001],[144.36614,-38.31011],[144.36585,-38.31029],[144.36542,-38.3105],[144.36472,-38.31071],[144.36442,-38.31083],[144.36425,-38.31088],[144.36377,-38.31101],[144.36368,-38.31103],[144.36358,-38.31104],[144.36349,-38.31105],[144.36339,-38.31105],[144.36231,-38.31103],[144.36221,-38.31103],[144.36213,-38.31101],[144.36153,-38.31092],[144.36138,-38.31088],[144.36129,-38.31086],[144.36124,-38.31083],[144.36088,-38.31069],[144.36053,-38.31065],[144.36001,-38.31061],[144.35984,-38.31063],[144.35971,-38.31064],[144.35961,-38.31066],[144.35949,-38.31068],[144.35941,-38.31066],[144.35926,-38.31063],[144.35914,-38.31064],[144.35899,-38.31064],[144.35884,-38.31062],[144.35874,-38.31061],[144.35861,-38.3106],[144.3585,-38.31059],[144.35838,-38.31052],[144.35826,-38.31044],[144.35811,-38.31039],[144.35801,-38.31039],[144.35793,-38.31035],[144.3579,-38.3103],[144.35788,-38.31025],[144.35782,-38.31022],[144.35774,-38.31021],[144.35768,-38.31018],[144.35756,-38.31018],[144.3575,-38.31014],[144.35745,-38.31004],[144.35737,-38.31001],[144.35729,-38.30997],[144.35721,-38.30994],[144.3571,-38.30983],[144.35706,-38.3098],[144.35693,-38.30983],[144.35677,-38.30982],[144.3567,-38.30981],[144.35662,-38.30977],[144.35655,-38.30973],[144.35652,-38.3097],[144.35654,-38.30961],[144.35665,-38.30956],[144.35684,-38.3095],[144.35701,-38.30944],[144.35721,-38.3094],[144.35748,-38.30933],[144.35763,-38.30931],[144.3576,-38.30911],[144.35756,-38.30909],[144.35721,-38.30902],[144.35711,-38.30905],[144.35696,-38.30906],[144.35679,-38.30911],[144.35669,-38.30914],[144.35622,-38.30911],[144.356,-38.30885],[144.35589,-38.30862],[144.35578,-38.30866],[144.35544,-38.30871],[144.35517,-38.30874],[144.35495,-38.30876],[144.35472,-38.30877],[144.3545,-38.30875],[144.35428,-38.30872],[144.35405,-38.3087],[144.35383,-38.30868],[144.35379,-38.30868],[144.35369,-38.30864],[144.35362,-38.30861],[144.35355,-38.30858],[144.35349,-38.30854],[144.35342,-38.3085],[144.35336,-38.30846],[144.35331,-38.30841],[144.35325,-38.30836],[144.3532,-38.30831],[144.35317,-38.30825],[144.35312,-38.30819],[144.35309,-38.30814],[144.35306,-38.30807],[144.35303,-38.30801],[144.35301,-38.30795],[144.353,-38.30788],[144.35299,-38.30782],[144.35302,-38.30774],[144.35299,-38.30769],[144.353,-38.30764],[144.35301,-38.30759],[144.35302,-38.30752],[144.35304,-38.30745],[144.35306,-38.30739],[144.35309,-38.30733],[144.35313,-38.30727],[144.35316,-38.30721],[144.35321,-38.30716],[144.35325,-38.30711],[144.35331,-38.30706],[144.35336,-38.30701],[144.35342,-38.30696],[144.35349,-38.30692],[144.35355,-38.30689],[144.35361,-38.30687],[144.35369,-38.30687],[144.35375,-38.30687],[144.3538,-38.30687],[144.35387,-38.30688],[144.35394,-38.30689],[144.35401,-38.30691],[144.3541,-38.30695],[144.35415,-38.30698],[144.3542,-38.307],[144.35425,-38.30702],[144.35428,-38.30702],[144.35439,-38.307],[144.35447,-38.30697],[144.35459,-38.30697],[144.3547,-38.30697],[144.35478,-38.30697],[144.35485,-38.30698],[144.35491,-38.30699],[144.35499,-38.307],[144.35505,-38.30702],[144.35508,-38.30703],[144.35524,-38.30706],[144.35517,-38.30705],[144.35529,-38.30707],[144.35537,-38.30709],[144.35544,-38.30712],[144.35551,-38.30715],[144.35558,-38.30718],[144.35563,-38.30721],[144.35569,-38.30724],[144.35574,-38.30727],[144.35579,-38.30728],[144.35585,-38.3073],[144.3559,-38.30732],[144.35594,-38.30732],[144.356,-38.30733],[144.35607,-38.30734],[144.35611,-38.30734],[144.35617,-38.30735],[144.35623,-38.30736],[144.35627,-38.30736],[144.35633,-38.30738],[144.35639,-38.30739],[144.35644,-38.30742],[144.3565,-38.30744],[144.35655,-38.30746],[144.35664,-38.30748],[144.3567,-38.30749],[144.35677,-38.30751],[144.35682,-38.30752],[144.35691,-38.30754],[144.35695,-38.30755],[144.35698,-38.30755],[144.35702,-38.30756],[144.35705,-38.30758],[144.35708,-38.3076],[144.35715,-38.30757],[144.35714,-38.30743],[144.35712,-38.30733],[144.35708,-38.30717],[144.35705,-38.30704],[144.35702,-38.30691],[144.35699,-38.30685],[144.35708,-38.30669],[144.35719,-38.30629],[144.35737,-38.30609],[144.35751,-38.30577],[144.35766,-38.30559],[144.3577,-38.30554],[144.35772,-38.30551],[144.35777,-38.30546],[144.35779,-38.30542],[144.35824,-38.30471],[144.35896,-38.30413],[144.35949,-38.3038],[144.35964,-38.30377],[144.35969,-38.30373],[144.35972,-38.3037],[144.35977,-38.30366],[144.35983,-38.3036],[144.35991,-38.30355],[144.36019,-38.30336],[144.36068,-38.30299],[144.36076,-38.30286],[144.3629,-38.3015],[144.36408,-38.30087],[144.36524,-38.3001],[144.36589,-38.29939],[144.36647,-38.2989],[144.36745,-38.29827],[144.3676,-38.29787],[144.36781,-38.29757],[144.36872,-38.29674],[144.36913,-38.29515],[144.36959,-38.29435],[144.36968,-38.294],[144.37003,-38.29333],[144.37017,-38.2928],[144.37041,-38.29232],[144.37088,-38.29182],[144.37098,-38.29164],[144.37157,-38.29044],[144.37162,-38.28973],[144.37177,-38.28899],[144.37219,-38.28815],[144.37319,-38.28717],[144.37432,-38.28635],[144.37596,-38.2855],[144.37662,-38.28526],[144.37682,-38.28511],[144.37709,-38.28474],[144.37785,-38.28403],[144.37831,-38.28335],[144.37948,-38.28227],[144.37966,-38.28218],[144.37989,-38.28193],[144.37999,-38.28184],[144.38063,-38.28129],[144.38067,-38.28126],[144.38074,-38.28121],[144.38081,-38.28117],[144.38089,-38.28113],[144.38098,-38.28109],[144.38107,-38.28106],[144.38116,-38.28104],[144.38125,-38.28102],[144.38134,-38.28101],[144.38144,-38.281],[144.38149,-38.281],[144.38223,-38.28101],[144.38276,-38.28093],[144.38223,-38.28036],[144.38192,-38.27981],[144.38192,-38.27963],[144.38188,-38.27955],[144.38185,-38.27948],[144.38183,-38.27941],[144.38182,-38.27937],[144.3818,-38.27927],[144.38179,-38.27923],[144.38178,-38.27919],[144.38171,-38.27905],[144.38168,-38.27897],[144.38164,-38.27886],[144.38161,-38.27874],[144.3816,-38.27866],[144.3816,-38.27859],[144.38162,-38.27842],[144.38162,-38.27835],[144.38162,-38.27831],[144.38162,-38.27826],[144.38166,-38.27799],[144.38167,-38.27794],[144.38169,-38.27787],[144.38174,-38.27774],[144.38179,-38.27765],[144.38185,-38.27753],[144.38187,-38.27748],[144.38192,-38.27739],[144.38196,-38.27734],[144.38202,-38.27725],[144.38206,-38.27712],[144.38224,-38.27686],[144.38193,-38.27621],[144.38175,-38.2761],[144.38084,-38.27606],[144.38028,-38.27587],[144.37919,-38.2749],[144.37909,-38.27473],[144.379,-38.27466],[144.37891,-38.27457],[144.37884,-38.27449],[144.37879,-38.27443],[144.37854,-38.27426],[144.37814,-38.2737],[144.37749,-38.27377],[144.37683,-38.27361],[144.37635,-38.27323],[144.37601,-38.27266],[144.37507,-38.2732],[144.37445,-38.27338],[144.37308,-38.27319],[144.37252,-38.273],[144.3723,-38.27283],[144.37209,-38.27255],[144.37201,-38.27223],[144.37205,-38.27185],[144.37185,-38.27158],[144.3717,-38.27118],[144.37174,-38.27078],[144.37198,-38.27042],[144.37254,-38.26999],[144.37319,-38.2697],[144.37368,-38.2696],[144.3741,-38.26963],[144.37456,-38.26981],[144.37488,-38.27013],[144.37502,-38.27052],[144.37494,-38.27097],[144.37544,-38.27106],[144.37581,-38.27121],[144.3761,-38.27075],[144.37646,-38.2704],[144.37687,-38.2702],[144.37752,-38.27002],[144.37793,-38.27],[144.37885,-38.27014],[144.37934,-38.27036],[144.37968,-38.27065],[144.38034,-38.27037],[144.38112,-38.27034],[144.38174,-38.27056],[144.38214,-38.27084],[144.38234,-38.27112],[144.38255,-38.27163],[144.38325,-38.27186],[144.38366,-38.27135],[144.38339,-38.27085],[144.38333,-38.2704],[144.38341,-38.26985],[144.38376,-38.26864],[144.38367,-38.26819],[144.38376,-38.26772],[144.38414,-38.26716],[144.38483,-38.26683],[144.38534,-38.26676],[144.38604,-38.26689],[144.38714,-38.26737],[144.38763,-38.26787],[144.38777,-38.26826],[144.38766,-38.26878],[144.38736,-38.26917],[144.38674,-38.26962],[144.38657,-38.26987],[144.38668,-38.2701],[144.38698,-38.27032],[144.38824,-38.27025],[144.38892,-38.26995],[144.38988,-38.26978],[144.3908,-38.26945],[144.3902,-38.26873],[144.39002,-38.26834],[144.38998,-38.26797],[144.39004,-38.26765],[144.39024,-38.26736],[144.39041,-38.26722],[144.39057,-38.26708],[144.39094,-38.26693],[144.39178,-38.26675],[144.39248,-38.26685],[144.39404,-38.26759],[144.39437,-38.26784],[144.39467,-38.26822],[144.39473,-38.26863],[144.39461,-38.26904],[144.39405,-38.26993],[144.39354,-38.27052],[144.39369,-38.27107],[144.39358,-38.27161],[144.39309,-38.27213],[144.39239,-38.27237],[144.39198,-38.2733],[144.39171,-38.27363],[144.3914,-38.27384],[144.39083,-38.27403],[144.39018,-38.27403],[144.38963,-38.27381],[144.3888,-38.27379],[144.38837,-38.27371],[144.3874,-38.27326],[144.38654,-38.27363],[144.38569,-38.27369],[144.3852,-38.27357],[144.38461,-38.2732],[144.38404,-38.27316],[144.38394,-38.27375],[144.38459,-38.27405],[144.38497,-38.27441],[144.38524,-38.27483],[144.38543,-38.27531],[144.38605,-38.27577],[144.38672,-38.27689],[144.38731,-38.27713],[144.38801,-38.27757],[144.38861,-38.27763],[144.38932,-38.27781],[144.39004,-38.27813],[144.39171,-38.27775],[144.39245,-38.27766],[144.39412,-38.2777],[144.39496,-38.27788],[144.39563,-38.27825],[144.39619,-38.27887],[144.39636,-38.27917],[144.39643,-38.27977],[144.39639,-38.28021],[144.39622,-38.2806],[144.39619,-38.2809],[144.3977,-38.28169],[144.39834,-38.28213],[144.3992,-38.28242],[144.39965,-38.28276],[144.40069,-38.28288],[144.401,-38.28267]]]]},"properties":{"scheme":"SMO","zone_code":"SMO","description":"SALINITY MANAGEMENT OVERLAY","lga":"SURF COAST"}},{"type":"Feature","geometry":{"type":"MultiPolygon","coordinates":[[[[144.92589,-37.47984],[144.92589,-37.48002],[144.92586,-37.48024],[144.9258,-37.48042],[144.92568,-37.48062],[144.92556,-37.48076],[144.92548,-37.48093],[144.92541,-37.48104],[144.9253,-37.48115],[144.92521,-37.48135],[144.92515,-37.4815],[144.92508,-37.48171],[144.92501,-37.48195],[144.92498,-37.48219],[144.92484,-37.48246],[144.92481,-37.48269],[144.9247,-37.48294],[144.92466,-37.48315],[144.92458,-37.48345],[144.92457,-37.48362],[144.92454,-37.48376],[144.92451,-37.48394],[144.92448,-37.48406],[144.92449,-37.48421],[144.92444,-37.48435],[144.92441,-37.48452],[144.92431,-37.48467],[144.92411,-37.48481],[144.92397,-37.48487],[144.92402,-37.48499],[144.92411,-37.48517],[144.92412,-37.48528],[144.92414,-37.48543],[144.92414,-37.48558],[144.92412,-37.48575],[144.92408,-37.48593],[144.92403,-37.48612],[144.92399,-37.48628],[144.92388,-37.48646],[144.92382,-37.48659],[144.92377,-37.48685],[144.92371,-37.48702],[144.92368,-37.48721],[144.92362,-37.48743],[144.92354,-37.48763],[144.92339,-37.48788],[144.9233,-37.48807],[144.92324,-37.48826],[144.92321,-37.48837],[144.92318,-37.48862],[144.92307,-37.48879],[144.92304,-37.48894],[144.92295,-37.48917],[144.92293,-37.48929],[144.92289,-37.4894],[144.92284,-37.48961],[144.92281,-37.48971],[144.92277,-37.48985],[144.92267,-37.48998],[144.92254,-37.48998],[144.92254,-37.48975],[144.92254,-37.4896],[144.92258,-37.48942],[144.92261,-37.48923],[144.92261,-37.48902],[144.92261,-37.48884],[144.92263,-37.48868],[144.92264,-37.48853],[144.92264,-37.48839],[144.92264,-37.48823],[144.9226,-37.48811],[144.92257,-37.48794],[144.92257,-37.4878],[144.92249,-37.48768],[144.92248,-37.48757],[144.9224,-37.4874],[144.92232,-37.4873],[144.92228,-37.4872],[144.92223,-37.4871],[144.92222,-37.48699],[144.92219,-37.48676],[144.92219,-37.48657],[144.92217,-37.48647],[144.9222,-37.48634],[144.92225,-37.48623],[144.92228,-37.48611],[144.92231,-37.48601],[144.92238,-37.48585],[144.92245,-37.48571],[144.92248,-37.4856],[144.92254,-37.48552],[144.92261,-37.48535],[144.92271,-37.48522],[144.9228,-37.48511],[144.92293,-37.48495],[144.92304,-37.48486],[144.92321,-37.48477],[144.9233,-37.48472],[144.92325,-37.48443],[144.92322,-37.48424],[144.92322,-37.48411],[144.92322,-37.48387],[144.92324,-37.48367],[144.92321,-37.48353],[144.92321,-37.48333],[144.92321,-37.48319],[144.92321,-37.48303],[144.92324,-37.48271],[144.92328,-37.48259],[144.92338,-37.48225],[144.92348,-37.48208],[144.92356,-37.48188],[144.9237,-37.48164],[144.92377,-37.48144],[144.92388,-37.48124],[144.924,-37.48107],[144.92409,-37.48094],[144.92423,-37.48078],[144.92432,-37.4806],[144.92441,-37.48047],[144.92451,-37.48031],[144.92463,-37.48016],[144.92472,-37.48004],[144.92486,-37.4799],[144.92492,-37.47981],[144.92496,-37.47968],[144.92501,-37.47946],[144.92505,-37.47924],[144.92504,-37.47891],[144.9251,-37.4787],[144.92528,-37.47868],[144.92542,-37.47885],[144.9255,-37.47891],[144.92562,-37.47907],[144.92571,-37.47923],[144.92579,-37.47945],[144.92588,-37.47968],[144.92589,-37.47984]]]]},"properties":{"scheme":"SMO","zone_code":"SMO","description":"SALINITY MANAGEMENT OVERLAY","lga":"MITCHELL"}},{"type":"Feature","geometry":{"type":"MultiPolygon","coordinates":[[[[145.01665,-37.43321],[145.01659,-37.43334],[145.01659,-37.43356],[145.01661,-37.43376],[145.01661,-37.434],[145.01658,-37.43418],[145.01646,-37.43436],[145.01635,-37.43439],[145.01623,-37.43434],[145.01613,-37.43421],[145.01603,-37.43406],[145.016,-37.43394],[145.01595,-37.43377],[145.01594,-37.43364],[145.01581,-37.43343],[145.01574,-37.43326],[145.01562,-37.43308],[145.01554,-37.43285],[145.01549,-37.43276],[145.01537,-37.4327],[145.01511,-37.43245],[145.01494,-37.43232],[145.01478,-37.43219],[145.01465,-37.43216],[145.0145,-37.43209],[145.01433,-37.432],[145.01403,-37.43183],[145.01394,-37.43169],[145.01386,-37.43159],[145.01388,-37.43141],[145.01398,-37.4313],[145.01412,-37.43126],[145.01426,-37.43126],[145.01436,-37.43125],[145.0145,-37.43131],[145.01461,-37.43136],[145.01471,-37.43142],[145.01493,-37.43148],[145.01513,-37.43152],[145.01528,-37.43156],[145.01542,-37.4316],[145.01558,-37.43162],[145.01581,-37.43169],[145.01592,-37.43173],[145.0161,-37.43183],[145.01624,-37.43199],[145.01633,-37.4321],[145.01646,-37.43227],[145.01648,-37.43238],[145.0165,-37.43252],[145.01653,-37.43263],[145.01659,-37.43283],[145.01664,-37.43301],[145.01665,-37.43321]]]]},"properties":{"scheme":"SMO","zone_code":"SMO","description":"SALINITY MANAGEMENT OVERLAY","lga":"MITCHELL"}},{"type":"Feature","geometry":{"type":"MultiPolygon","coordinates":[[[[144.9954,-37.41522],[144.99538,-37.41534],[144.99535,-37.41548],[144.99532,-37.41558],[144.99528,-37.41569],[144.99529,-37.4158],[144.99526,-37.41593],[144.99523,-37.41605],[144.99518,-37.41617],[144.99511,-37.41627],[144.99497,-37.41633],[144.99488,-37.41628],[144.99486,-37.41615],[144.99486,-37.41601],[144.99486,-37.41583],[144.99488,-37.41573],[144.99488,-37.41555],[144.99483,-37.41538],[144.99483,-37.41521],[144.99485,-37.41498],[144.99485,-37.41482],[144.99466,-37.41465],[144.99445,-37.41449],[144.99433,-37.41442],[144.99413,-37.41437],[144.99399,-37.41423],[144.99376,-37.4141],[144.99364,-37.41401],[144.99347,-37.41385],[144.99337,-37.41379],[144.9932,-37.41362],[144.99308,-37.41347],[144.99291,-37.41328],[144.99264,-37.41319],[144.99254,-37.41308],[144.99242,-37.41299],[144.99226,-37.41286],[144.99212,-37.41276],[144.99201,-37.41267],[144.99193,-37.41257],[144.99192,-37.41242],[144.99193,-37.41231],[144.99212,-37.41227],[144.99224,-37.41239],[144.99235,-37.41254],[144.99245,-37.41265],[144.99257,-37.41259],[144.99261,-37.41249],[144.99268,-37.41228],[144.99274,-37.41217],[144.99283,-37.41193],[144.99293,-37.41201],[144.99299,-37.41223],[144.99303,-37.41237],[144.99303,-37.41259],[144.99302,-37.41269],[144.99303,-37.4128],[144.99305,-37.41295],[144.99317,-37.41305],[144.99325,-37.41314],[144.99337,-37.41325],[144.99349,-37.41336],[144.9936,-37.41349],[144.99369,-37.41355],[144.99383,-37.41363],[144.9939,-37.41374],[144.99406,-37.41386],[144.99416,-37.41397],[144.99425,-37.4141],[144.99436,-37.41413],[144.99451,-37.41421],[144.9946,-37.41425],[144.99476,-37.41436],[144.99489,-37.41446],[144.99499,-37.41459],[144.99503,-37.41469],[144.99509,-37.41481],[144.9952,-37.41493],[144.99529,-37.41503],[144.99535,-37.41512],[144.9954,-37.41522]]]]},"properties":{"scheme":"SMO","zone_code":"SMO","description":"SALINITY MANAGEMENT OVERLAY","lga":"MITCHELL"}},{"type":"Feature","geometry":{"type":"MultiPolygon","coordinates":[[[[144.99401,-37.40876],[144.99401,-37.40891],[144.99398,-37.40906],[144.99392,-37.40926],[144.99384,-37.40947],[144.9938,-37.40964],[144.99373,-37.40987],[144.99366,-37.41007],[144.99363,-37.4103],[144.99351,-37.41055],[144.99343,-37.41078],[144.99341,-37.41098],[144.99331,-37.41114],[144.99323,-37.41139],[144.99316,-37.41157],[144.99309,-37.41173],[144.99299,-37.41179],[144.99293,-37.4116],[144.99293,-37.41147],[144.99288,-37.41128],[144.99288,-37.41115],[144.9929,-37.41098],[144.99286,-37.41081],[144.9929,-37.41067],[144.9929,-37.41054],[144.99294,-37.41038],[144.99296,-37.41025],[144.99297,-37.41005],[144.99302,-37.40981],[144.99297,-37.40971],[144.99297,-37.40958],[144.993,-37.40939],[144.99306,-37.40927],[144.99316,-37.40909],[144.99323,-37.40896],[144.99332,-37.40872],[144.99345,-37.40851],[144.99349,-37.40842],[144.99358,-37.40831],[144.99366,-37.40821],[144.99387,-37.40812],[144.99392,-37.40822],[144.99396,-37.40834],[144.99399,-37.40855],[144.99401,-37.40876]]]]},"properties":{"scheme":"SMO","zone_code":"SMO","description":"SALINITY MANAGEMENT OVERLAY","lga":"MITCHELL"}},{"type":"Feature","geometry":{"type":"MultiPolygon","coordinates":[[[[145.00118,-37.41018],[145.00118,-37.41036],[145.00115,-37.41051],[145.00112,-37.41067],[145.00106,-37.41094],[145.00101,-37.41111],[145.00097,-37.41125],[145.00086,-37.41134],[145.00068,-37.4113],[145.00065,-37.41113],[145.0006,-37.41096],[145.00059,-37.41077],[145.00055,-37.4106],[145.00053,-37.41047],[145.00045,-37.41041],[145.00033,-37.41031],[145.0002,-37.41025],[145.00004,-37.41007],[144.99991,-37.40998],[144.99973,-37.40991],[144.99961,-37.40982],[144.99949,-37.40979],[144.99937,-37.40972],[144.99927,-37.40966],[144.9992,-37.40959],[144.99917,-37.40948],[144.99917,-37.40933],[144.99927,-37.4092],[144.99947,-37.40915],[144.99981,-37.40916],[144.99996,-37.40917],[145.00013,-37.40921],[145.00028,-37.40922],[145.00046,-37.40926],[145.00062,-37.40929],[145.00075,-37.40935],[145.00091,-37.40946],[145.00103,-37.40952],[145.00112,-37.40966],[145.00115,-37.40984],[145.00115,-37.40998],[145.00118,-37.41018]]]]},"properties":{"scheme":"SMO","zone_code":"SMO","description":"SALINITY MANAGEMENT OVERLAY","lga":"MITCHELL"}},{"type":"Feature","geometry":{"type":"MultiPolygon","coordinates":[[[[145.05726,-37.42763],[145.0572,-37.42773],[145.05709,-37.42774],[145.05698,-37.42766],[145.05694,-37.42744],[145.05686,-37.4272],[145.05683,-37.42709],[145.05675,-37.42695],[145.05668,-37.42687],[145.05652,-37.42678],[145.05636,-37.42679],[145.05625,-37.42683],[145.05605,-37.42694],[145.05585,-37.427],[145.05572,-37.42701],[145.05553,-37.42699],[145.05529,-37.4269],[145.05514,-37.42685],[145.05495,-37.42681],[145.05474,-37.42679],[145.05459,-37.42668],[145.05456,-37.42657],[145.05456,-37.42639],[145.05477,-37.4263],[145.05491,-37.42627],[145.05509,-37.42628],[145.05527,-37.42631],[145.05543,-37.42638],[145.05556,-37.42641],[145.05576,-37.42644],[145.05581,-37.42635],[145.05585,-37.42619],[145.05595,-37.42608],[145.05607,-37.42603],[145.05623,-37.42597],[145.05631,-37.42586],[145.05639,-37.42571],[145.05652,-37.42568],[145.05672,-37.42571],[145.05683,-37.42582],[145.05688,-37.42606],[145.05695,-37.42623],[145.057,-37.42634],[145.05704,-37.42645],[145.05707,-37.42671],[145.05715,-37.42688],[145.0572,-37.42703],[145.0572,-37.42716],[145.05723,-37.42739],[145.05723,-37.42751],[145.05726,-37.42763]]]]},"properties":{"scheme":"SMO","zone_code":"SMO","description":"SALINITY MANAGEMENT OVERLAY","lga":"MITCHELL"}},{"type":"Feature","geometry":{"type":"MultiPolygon","coordinates":[[[[144.98948,-37.40479],[144.98935,-37.40484],[144.98916,-37.40487],[144.98899,-37.4049],[144.98887,-37.4049],[144.98867,-37.40488],[144.98852,-37.40488],[144.98838,-37.40486],[144.98821,-37.40485],[144.98798,-37.40486],[144.98783,-37.40487],[144.98768,-37.40489],[144.98752,-37.40494],[144.9874,-37.40497],[144.98725,-37.405],[144.98694,-37.40501],[144.98678,-37.40503],[144.98652,-37.40502],[144.98632,-37.40501],[144.98615,-37.40498],[144.98598,-37.40489],[144.98589,-37.40481],[144.98583,-37.40471],[144.98571,-37.4045],[144.98569,-37.40439],[144.98575,-37.40428],[144.98588,-37.40423],[144.986,-37.40422],[144.98617,-37.40421],[144.98629,-37.40422],[144.98649,-37.40427],[144.98676,-37.40432],[144.98693,-37.40436],[144.9872,-37.4044],[144.98736,-37.4044],[144.98749,-37.40441],[144.98765,-37.40443],[144.98775,-37.40446],[144.98788,-37.40446],[144.98804,-37.40445],[144.98832,-37.40443],[144.9885,-37.40444],[144.98864,-37.40445],[144.98876,-37.40446],[144.9889,-37.4045],[144.98902,-37.40452],[144.98916,-37.40453],[144.98935,-37.4046],[144.98945,-37.40465],[144.98948,-37.40479]]]]},"properties":{"scheme":"SMO","zone_code":"SMO","description":"SALINITY MANAGEMENT OVERLAY","lga":"MITCHELL"}},{"type":"Feature","geometry":{"type":"MultiPolygon","coordinates":[[[[145.01888,-37.4123],[145.01888,-37.41241],[145.01883,-37.41255],[145.01873,-37.41266],[145.01859,-37.41273],[145.01848,-37.41265],[145.01841,-37.41258],[145.0183,-37.4125],[145.01818,-37.41243],[145.01815,-37.41231],[145.01821,-37.41219],[145.01826,-37.4121],[145.01827,-37.41198],[145.01824,-37.41181],[145.0183,-37.41167],[145.01838,-37.41156],[145.01845,-37.41145],[145.0185,-37.41128],[145.01859,-37.41115],[145.01871,-37.41109],[145.01879,-37.41122],[145.0188,-37.41135],[145.01877,-37.41145],[145.01871,-37.41159],[145.01868,-37.41171],[145.01864,-37.41181],[145.01873,-37.41194],[145.01882,-37.41202],[145.01887,-37.41212],[145.01888,-37.4123]]]]},"properties":{"scheme":"SMO","zone_code":"SMO","description":"SALINITY MANAGEMENT OVERLAY","lga":"MITCHELL"}},{"type":"Feature","geometry":{"type":"MultiPolygon","coordinates":[[[[144.99509,-37.4188],[144.99503,-37.41899],[144.99491,-37.41915],[144.9948,-37.41929],[144.99468,-37.41937],[144.99456,-37.41946],[144.99448,-37.41954],[144.99437,-37.41962],[144.99427,-37.41974],[144.99415,-37.41984],[144.99406,-37.41989],[144.99395,-37.41989],[144.99384,-37.41982],[144.99381,-37.41971],[144.99393,-37.41959],[144.99404,-37.41951],[144.99415,-37.41943],[144.99433,-37.41934],[144.99436,-37.41924],[144.99439,-37.41914],[144.9945,-37.41889],[144.99459,-37.41877],[144.99476,-37.41862],[144.99494,-37.41859],[144.99506,-37.41868],[144.99509,-37.4188]]]]},"properties":{"scheme":"SMO","zone_code":"SMO","description":"SALINITY MANAGEMENT OVERLAY","lga":"MITCHELL"}},{"type":"Feature","geometry":{"type":"MultiPolygon","coordinates":[[[[145.0189,-37.41069],[145.01882,-37.41081],[145.01871,-37.41086],[145.01858,-37.41084],[145.01853,-37.41071],[145.01847,-37.41056],[145.01841,-37.41046],[145.01838,-37.41033],[145.01838,-37.41018],[145.01835,-37.41006],[145.01833,-37.40991],[145.01836,-37.40978],[145.01838,-37.40968],[145.01841,-37.40949],[145.01845,-37.4094],[145.01859,-37.40931],[145.01868,-37.40939],[145.01873,-37.40963],[145.01876,-37.40982],[145.01877,-37.41003],[145.0188,-37.41018],[145.01882,-37.41032],[145.01885,-37.41042],[145.01888,-37.41056],[145.0189,-37.41069]]]]},"properties":{"scheme":"SMO","zone_code":"SMO","description":"SALINITY MANAGEMENT OVERLAY","lga":"MITCHELL"}},{"type":"Feature","geometry":{"type":"MultiPolygon","coordinates":[[[[145.04998,-37.42519],[145.04992,-37.42528],[145.04979,-37.4253],[145.04958,-37.4253],[145.04941,-37.42528],[145.04929,-37.42526],[145.04918,-37.42514],[145.04914,-37.42503],[145.04908,-37.42492],[145.04903,-37.42481],[145.04912,-37.42474],[145.04932,-37.42469],[145.04944,-37.42469],[145.04957,-37.42475],[145.04967,-37.42478],[145.04977,-37.42482],[145.04987,-37.42497],[145.04995,-37.42507],[145.04998,-37.42519]]]]},"properties":{"scheme":"SMO","zone_code":"SMO","description":"SALINITY MANAGEMENT OVERLAY","lga":"MITCHELL"}},{"type":"Feature","geometry":{"type":"MultiPolygon","coordinates":[[[[144.96331,-37.42207],[144.96331,-37.42218],[144.96325,-37.4223],[144.9632,-37.42242],[144.96308,-37.42247],[144.96297,-37.42251],[144.96281,-37.42247],[144.96271,-37.42243],[144.96267,-37.42229],[144.96262,-37.42202],[144.96268,-37.42191],[144.96279,-37.42181],[144.96297,-37.42176],[144.9631,-37.42181],[144.96319,-37.42189],[144.96331,-37.42207]]]]},"properties":{"scheme":"SMO","zone_code":"SMO","description":"SALINITY MANAGEMENT OVERLAY","lga":"MITCHELL"}},{"type":"Feature","geometry":{"type":"MultiPolygon","coordinates":[[[[145.03646,-37.42454],[145.03631,-37.42458],[145.03614,-37.42464],[145.03603,-37.42469],[145.03588,-37.4247],[145.0357,-37.42469],[145.03565,-37.42457],[145.03577,-37.42438],[145.03586,-37.4243],[145.03597,-37.42425],[145.03612,-37.42423],[145.03632,-37.42424],[145.03643,-37.42436],[145.03646,-37.42454]]]]},"properties":{"scheme":"SMO","zone_code":"SMO","description":"SALINITY MANAGEMENT OVERLAY","lga":"MITCHELL"}},{"type":"Feature","geometry":{"type":"MultiPolygon","coordinates":[[[[145.02015,-37.41332],[145.01999,-37.41339],[145.01981,-37.41337],[145.01968,-37.41338],[145.01958,-37.41345],[145.01952,-37.41358],[145.01938,-37.4136],[145.01931,-37.41345],[145.01938,-37.41332],[145.01945,-37.41322],[145.01954,-37.4131],[145.01964,-37.4131],[145.01977,-37.41308],[145.01987,-37.4131],[145.02006,-37.41313],[145.02012,-37.41322],[145.02015,-37.41332]]]]},"properties":{"scheme":"SMO","zone_code":"SMO","description":"SALINITY MANAGEMENT OVERLAY","lga":"MITCHELL"}},{"type":"Feature","geometry":{"type":"MultiPolygon","coordinates":[[[[145.00632,-37.41171],[145.00623,-37.41187],[145.00616,-37.41202],[145.00609,-37.4121],[145.006,-37.41218],[145.0059,-37.41219],[145.00579,-37.41213],[145.00573,-37.41202],[145.00574,-37.41187],[145.00587,-37.41174],[145.00596,-37.4117],[145.00612,-37.41162],[145.00629,-37.41158],[145.00632,-37.41171]]]]},"properties":{"scheme":"SMO","zone_code":"SMO","description":"SALINITY MANAGEMENT OVERLAY","lga":"MITCHELL"}},{"type":"Feature","geometry":{"type":"MultiPolygon","coordinates":[[[[145.02112,-37.42595],[145.02102,-37.42604],[145.02086,-37.42598],[145.02079,-37.42606],[145.02065,-37.42604],[145.02059,-37.42585],[145.02054,-37.42568],[145.02068,-37.42559],[145.02082,-37.42557],[145.02096,-37.42562],[145.02102,-37.42571],[145.02108,-37.42581],[145.02112,-37.42595]]]]},"properties":{"scheme":"SMO","zone_code":"SMO","description":"SALINITY MANAGEMENT OVERLAY","lga":"MITCHELL"}},{"type":"Feature","geometry":{"type":"MultiPolygon","coordinates":[[[[145.02415,-37.41781],[145.02408,-37.41792],[145.02398,-37.41798],[145.02378,-37.41801],[145.02364,-37.41798],[145.02349,-37.41791],[145.02343,-37.41783],[145.02346,-37.41772],[145.02357,-37.41768],[145.02372,-37.41767],[145.0239,-37.41767],[145.02407,-37.41771],[145.02415,-37.41781]]]]},"properties":{"scheme":"SMO","zone_code":"SMO","description":"SALINITY MANAGEMENT OVERLAY","lga":"MITCHELL"}},{"type":"Feature","geometry":{"type":"MultiPolygon","coordinates":[[[[145.0208,-37.42495],[145.02076,-37.42509],[145.02067,-37.42517],[145.02056,-37.42512],[145.02056,-37.42489],[145.02064,-37.42475],[145.02074,-37.42473],[145.02079,-37.42484],[145.0208,-37.42495]]]]},"properties":{"scheme":"SMO","zone_code":"SMO","description":"SALINITY MANAGEMENT OVERLAY","lga":"MITCHELL"}},{"type":"Feature","geometry":{"type":"MultiPolygon","coordinates":[[[[144.96868,-37.47255],[144.9686,-37.47269],[144.96851,-37.47279],[144.96842,-37.47284],[144.96828,-37.47288],[144.96807,-37.47291],[144.9679,-37.47298],[144.96773,-37.47299],[144.96753,-37.47299],[144.96738,-37.47299],[144.96722,-37.473],[144.96702,-37.47297],[144.96685,-37.47295],[144.96663,-37.4729],[144.96647,-37.47283],[144.96634,-37.47278],[144.96628,-37.47268],[144.96622,-37.47259],[144.96621,-37.47243],[144.9663,-37.47233],[144.96642,-37.47229],[144.96656,-37.47224],[144.96667,-37.47217],[144.96677,-37.47216],[144.96693,-37.47216],[144.96714,-37.47219],[144.96724,-37.47221],[144.96741,-37.47223],[144.96752,-37.47227],[144.9677,-37.47231],[144.96783,-37.47231],[144.96831,-37.47232],[144.96843,-37.47238],[144.96857,-37.47245],[144.96868,-37.47255]]]]},"properties":{"scheme":"SMO","zone_code":"SMO","description":"SALINITY MANAGEMENT OVERLAY","lga":"MITCHELL"}}]}